DMSP 5D-3 F16 (USA 172) 
1 28054U 03048A   25267.31940626  .00000257  00000+0  15787-3 0  9991
2 28054  99.0122 284.1153 0007292 171.6129 199.0146 14.14380299131900
METEOSAT-9 (MSG-2)      
1 28912U 05049B   25266.97655725  .00000126  00000+0  00000+0 0  9994
2 28912   8.7512  56.7116 0001477 203.8847 139.9008  1.00279116  4331
DMSP 5D-3 F17 (USA 191) 
1 29522U 06050A   25267.28553865  .00000336  00000+0  19643-3 0  9992
2 29522  98.7420 274.3124 0011247  94.8492 265.3966 14.14865843974816
FENGYUN 3A              
1 32958U 08026A   25267.31683090  .00000206  00000+0  11837-3 0  9995
2 32958  98.6551 208.5740 0008795 166.8717 193.2690 14.19474692897689
GOES 14                 
1 35491U 09033A   25267.26999587 -.00000067  00000+0  00000+0 0  9996
2 35491   0.9879  86.4464 0003741 107.4426 158.2916  1.00270885  3925
DMSP 5D-3 F18 (USA 210) 
1 35951U 09057A   25267.23216256  .00000437  00000+0  24989-3 0  9991
2 35951  98.8722 244.0705 0010036 290.1829  69.8264 14.14701603821984
EWS-G2 (GOES 15)        
1 36411U 10008A   25267.13493771  .00000038  00000+0  00000+0 0  9990
2 36411   0.6027  85.4783 0005098 138.1737 249.4945  1.00272216 56974
COMS 1                  
1 36744U 10032A   25266.88867304 -.00000343  00000+0  00000+0 0  9994
2 36744   4.1406  78.8028 0000708  83.4414 288.8114  1.00274188 48424
FENGYUN 3B              
1 37214U 10059A   25267.26745730  .00000163  00000+0  10805-3 0  9994
2 37214  99.0039 306.6352 0021505 218.0818 274.7177 14.14756617769824
SUOMI NPP               
1 37849U 11061A   25267.32678190  .00000177  00000+0  10501-3 0  9992
2 37849  98.7632 205.4361 0002027  45.8749 314.2593 14.19519646720728
METEOSAT-10 (MSG-3)     
1 38552U 12035B   25267.22007566 -.00000002  00000+0  00000+0 0  9995
2 38552   4.0368  61.8813 0000163 210.1976 170.7080  1.00276622 48190
METOP-B                 
1 38771U 12049A   25267.17829350  .00000964  00000+0  46072-3 0  9999
2 38771  98.6686 318.4497 0002449  55.2049 304.9359 14.21466529675473
INSAT-3D                
1 39216U 13038B   25267.26711385 -.00000339  00000+0  00000+0 0  9995
2 39216   1.2337  86.0289 0002036 131.8750  11.1212  1.00268096 44411
FENGYUN 3C              
1 39260U 13052A   25267.30323278  .00000220  00000+0  13288-3 0  9999
2 39260  98.4666 248.8946 0015847  70.3274 289.9610 14.15656826620940
METEOR-M 2              
1 40069U 14037A   25267.27240139  .00000296  00000+0  15463-3 0  9992
2 40069  98.4803 247.9382 0006960  89.1110 271.0865 14.21336235581541
HIMAWARI-8              
1 40267U 14060A   25267.26155616 -.00000275  00000+0  00000+0 0  9997
2 40267   0.0151 171.2825 0001169  26.4613  40.4346  1.00272416 40089
FENGYUN 2G              
1 40367U 14090A   25267.31120922 -.00000300  00000+0  00000+0 0  9998
2 40367   4.9623  76.0396 0003305 178.1565 320.8176  1.00276348 39337
METEOSAT-11 (MSG-4)     
1 40732U 15034A   25267.11989064  .00000064  00000+0  00000+0 0  9997
2 40732   2.5319  72.1942 0000668 144.0289 199.4598  1.00276107  4543
ELEKTRO-L 2             
1 41105U 15074A   25267.28854263 -.00000114  00000+0  00000+0 0  9993
2 41105   6.0198  73.7871 0002438 173.1101 205.8434  1.00271379 35847
INSAT-3DR               
1 41752U 16054A   25266.66385744 -.00000080  00000+0  00000+0 0  9996
2 41752   0.0731  89.2755 0012355 174.4061  52.0774  1.00272672 33140
HIMAWARI-9              
1 41836U 16064A   25267.26155616  .00000000  00000+0  00000+0 0  9991
2 41836   0.0216 192.5259 0003512  60.8534 344.8686  1.00266455 32545
GOES 16                 
1 41866U 16071A   25267.12799331 -.00000092  00000+0  00000+0 0  9997
2 41866   0.1128  80.0428 0002293 133.4313  91.1389  1.00271510 32435
FENGYUN 4A              
1 41882U 16077A   25267.31597591 -.00000356  00000+0  00000+0 0  9999
2 41882   1.6418  83.1058 0006312 160.2267 357.5654  1.00271709 32261
CYGFM05                 
1 41884U 16078A   25267.22581841  .00025054  00000+0  54180-3 0  9996
2 41884  34.9595 204.9189 0008852 174.4220 185.6600 15.43482510487455
CYGFM04                 
1 41885U 16078B   25267.11010258  .00028450  00000+0  57030-3 0  9994
2 41885  34.9345 182.4450 0008537 201.2249 158.8118 15.45686178487599
CYGFM02                 
1 41886U 16078C   25267.05252736  .00030143  00000+0  57951-3 0  9991
2 41886  34.9433 182.2162 0009831 195.5105 164.5316 15.46872902487700
CYGFM01                 
1 41887U 16078D   25267.24887870  .00025121  00000+0  53512-3 0  9995
2 41887  34.9429 207.6950 0008072 163.5545 196.5438 15.43932606487392
CYGFM08                 
1 41888U 16078E   25267.16668171  .00026577  00000+0  54563-3 0  9991
2 41888  34.9457 192.0496 0010372 186.1932 173.8661 15.44982274487600
CYGFM07                 
1 41890U 16078G   25267.19806880  .00027149  00000+0  54512-3 0  9998
2 41890  34.9475 181.2589 0009093 207.1073 152.9174 15.45640548487629
CYGFM03                 
1 41891U 16078H   25267.15658794  .00027224  00000+0  55224-3 0  9999
2 41891  34.9425 183.3772 0007652 194.2262 165.8244 15.45355672487595
FENGYUN 3D              
1 43010U 17072A   25267.30901062  .00000209  00000+0  12072-3 0  9993
2 43010  98.9750 232.4805 0002555  86.3658 273.7810 14.19645364407265
